CCSDS_OEM_VERS = 1.0
CREATION_DATE  = 2026-07-04T15:35:57
ORIGINATOR     = star_reacher

META_START
OBJECT_NAME          = twobody-leo
OBJECT_ID            = STAR-REACHER-INTEROP
CENTER_NAME          = Earth
REF_FRAME            = EME2000
TIME_SYSTEM          = UTC
START_TIME           = 2026-01-01T00:00:00.000000
USEABLE_START_TIME   = 2026-01-01T00:00:00.000000
USEABLE_STOP_TIME    = 2026-01-01T01:30:00.000000
STOP_TIME            = 2026-01-01T01:30:00.000000
INTERPOLATION        = Lagrange
INTERPOLATION_DEGREE = 7
META_STOP

2026-01-01T00:54:00.000000  -5.8689187220751037e+03  -3.3912835924330579e+03  0.0000000000000000e+00  3.8366861555213685e+00  -6.6396439335739723e+00  0.0000000000000000e+00
2026-01-01T00:55:00.000000  -5.6253784174695365e+03  -3.7815463790733575e+03  0.0000000000000000e+00  4.2782067408593756e+00  -6.3641201589562844e+00  0.0000000000000000e+00
2026-01-01T00:56:00.000000  -5.3559280646635025e+03  -4.1543916615657627e+03  0.0000000000000000e+00  4.7000227779596981e+00  -6.0592833900045040e+00  0.0000000000000000e+00
2026-01-01T00:57:00.000000  -5.0618086986729531e+03  -4.5081021191139689e+03  0.0000000000000000e+00  5.1001914118982246e+00  -5.7265375702431536e+00  0.0000000000000000e+00
2026-01-01T00:58:00.000000  -4.7443749787880788e+03  -4.8410485577137761e+03  0.0000000000000000e+00  5.4768694761147145e+00  -5.3674151882853121e+00  0.0000000000000000e+00
2026-01-01T00:59:00.000000  -4.4050889502022483e+03  -5.1516974140631946e+03  0.0000000000000000e+00  5.8283219815970080e+00  -4.9835702219522116e+00  0.0000000000000000e+00
2026-01-01T01:00:00.000000  -4.0455133110365368e+03  -5.4386178191647932e+03  0.0000000000000000e+00  6.1529301081826366e+00  -4.5767705228531135e+00  0.0000000000000000e+00
2026-01-01T01:01:00.000000  -3.6673042157486589e+03  -5.7004881890860343e+03  0.0000000000000000e+00  6.4491986611720744e+00  -4.1488896764492988e+00  0.0000000000000000e+00
2026-01-01T01:02:00.000000  -3.2722036480509546e+03  -5.9361023125181528e+03  0.0000000000000000e+00  6.7157629589036114e+00  -3.7018983750425520e+00  0.0000000000000000e+00
2026-01-01T01:03:00.000000  -2.8620313984452109e+03  -6.1443749070888816e+03  0.0000000000000000e+00  6.9513951195533386e+00  -3.2378553433726260e+00  0.0000000000000000e+00
2026-01-01T01:04:00.000000  -2.4386766833042470e+03  -6.3243466188282100e+03  0.0000000000000000e+00  7.1550097181846155e+00  -2.7588978585713289e+00  0.0000000000000000e+00
2026-01-01T01:05:00.000000  -2.0040894440825227e+03  -6.4751884417480887e+03  0.0000000000000000e+00  7.3256687879649505e+00  -2.2672319080920369e+00  0.0000000000000000e+00
2026-01-01T01:06:00.000000  -1.5602713667131129e+03  -6.5962055371656334e+03  0.0000000000000000e+00  7.4625861424833735e+00  -1.7651220309048525e+00  0.0000000000000000e+00
2026-01-01T01:07:00.000000  -1.1092666625391946e+03  -6.6868404351614909e+03  0.0000000000000000e+00  7.5651309992225251e+00  -1.2548808887111980e+00  0.0000000000000000e+00
2026-01-01T01:08:00.000000  -6.5315265322903804e+02  -6.7466756034089449e+03  0.0000000000000000e+00  7.6328308874542090e+00  -7.3885861518036766e-01  0.0000000000000000e+00
2026-01-01T01:09:00.000000  -1.9403020302889814e+02  -6.7754353715215193e+03  0.0000000000000000e+00  7.6653738271185814e+00  -2.1943199223910728e-01  0.0000000000000000e+00
2026-01-01T01:10:00.000000  2.6598595758579575e+02  -6.7729872020336234e+03  0.0000000000000000e+00  7.6626097686023558e+00  3.0100649675181562e-01  0.0000000000000000e+00
2026-01-01T01:11:00.000000  7.2477697229724401e+02  -6.7393423021376384e+03  0.0000000000000000e+00  7.6245512867327800e+00  8.2005968652614913e-01  0.0000000000000000e+00
2026-01-01T01:12:00.000000  1.1802296185083655e+03  -6.6746555733363266e+03  0.0000000000000000e+00  7.5513735257384855e+00  1.3353367713959836e+00  0.0000000000000000e+00
2026-01-01T01:13:00.000000  1.6302460411289219e+03  -6.5792248992191617e+03  0.0000000000000000e+00  7.4434133953775357e+00  1.8444643178327242e+00  0.0000000000000000e+00
2026-01-01T01:14:00.000000  2.0727534157469927e+03  -6.4534897746198330e+03  0.0000000000000000e+00  7.3011680218829778e+00  2.3450971974130237e+00  0.0000000000000000e+00
2026-01-01T01:15:00.000000  2.5057134966702574e+03  -6.2980292824466169e+03  0.0000000000000000e+00  7.1252924608100052e+00  2.8349293897573213e+00  0.0000000000000000e+00
2026-01-01T01:16:00.000000  2.9271320058488682e+03  -6.1135594274830810e+03  0.0000000000000000e+00  6.9165966822708285e+00  3.3117046056805557e+00  0.0000000000000000e+00
2026-01-01T01:17:00.000000  3.3350678194218181e+03  -5.9009298394196730e+03  0.0000000000000000e+00  6.6760418423984458e+00  3.7732266815965478e+00  0.0000000000000000e+00
2026-01-01T01:18:00.000000  3.7276419095581691e+03  -5.6611198602842342e+03  0.0000000000000000e+00  6.4047358581722253e+00  4.2173696972651786e+00  0.0000000000000000e+00
2026-01-01T01:19:00.000000  4.1030460003894614e+03  -5.3952340342769539e+03  0.0000000000000000e+00  6.1039283059517002e+00  4.6420877702405896e+00  0.0000000000000000e+00
2026-01-01T01:20:00.000000  4.4595508981444345e+03  -5.1044970207703391e+03  0.0000000000000000e+00  5.7750046671860460e+00  5.0454244818633569e+00  0.0000000000000000e+00
2026-01-01T01:21:00.000000  4.7955144570962220e+03  -4.7902479538945245e+03  0.0000000000000000e+00  5.4194799477791760e+00  5.4255218913327106e+00  0.0000000000000000e+00
2026-01-01T01:22:00.000000  5.1093891446084463e+03  -4.4539342746801240e+03  0.0000000000000000e+00  5.0389917004827707e+00  5.7806290962897720e+00  0.0000000000000000e+00
2026-01-01T01:23:00.000000  5.3997291704122827e+03  -4.0971050641632892e+03  0.0000000000000000e+00  4.6352924824454123e+00  6.1091103004293288e+00  0.0000000000000000e+00
2026-01-01T01:24:00.000000  5.6651971472532377e+03  -3.7214039081594956e+03  0.0000000000000000e+00  4.2102417826553582e+00  6.4094523509273813e+00  0.0000000000000000e+00
2026-01-01T01:25:00.000000  5.9045702522052088e+03  -3.3285613265728653e+03  0.0000000000000000e+00  3.7657974564630226e+00  6.6802717109138818e+00  0.0000000000000000e+00
2026-01-01T01:26:00.000000  6.1167458602493489e+03  -2.9203868021166536e+03  0.0000000000000000e+00  3.3040067066470300e+00  6.9203208348232677e+00  0.0000000000000000e+00
2026-01-01T01:27:00.000000  6.3007466241473394e+03  -2.4987604451688899e+03  0.0000000000000000e+00  2.8269966525831247e+00  7.1284939172074768e+00  0.0000000000000000e+00
2026-01-01T01:28:00.000000  6.4557249771900160e+03  -2.0656243331659334e+03  0.0000000000000000e+00  2.3369645309790994e+00  7.3038319884851948e+00  0.0000000000000000e+00
2026-01-01T01:29:00.000000  6.5809670380622429e+03  -1.6229735644385541e+03  0.0000000000000000e+00  1.8361675733420793e+00  7.4455273341125352e+00  0.0000000000000000e+00
2026-01-01T01:30:00.000000  6.6758958998209100e+03  -1.1728470677129451e+03  0.0000000000000000e+00  1.3269126068390356e+00  7.5529272167814483e+00  0.0000000000000000e+00
